OBJECT_NAME,OBJECT_ID,EPOCH,MEAN_MOTION,ECCENTRICITY,INCLINATION,RA_OF_ASC_NODE,ARG_OF_PERICENTER,MEAN_ANOMALY,EPHEMERIS_TYPE,CLASSIFICATION_TYPE,NORAD_CAT_ID,ELEMENT_SET_NO,REV_AT_EPOCH,BSTAR,MEAN_MOTION_DOT,MEAN_MOTION_DDOT
STARLINK-2291,2021-021C,2025-10-31T04:55:51.413952,15.06399524,.0001509,53.0531,122.8945,89.0873,271.0289,0,U,47862,999,25681,.2852094E-4,.143E-5,0
STARLINK-2326,2021-021L,2025-10-30T21:13:25.426848,15.06398786,.00014138,53.0523,149.3382,83.4571,276.6579,0,U,47870,999,25631,-.45306279E-4,-.956E-5,0
STARLINK-2329,2021-021P,2025-10-29T18:47:04.078176,15.06403812,.00013371,53.0528,129.2799,92.9390,267.1752,0,U,47873,999,25659,.12875695E-3,.1637E-4,0
STARLINK-2330,2021-021Q,2025-10-30T15:43:00.793056,15.06394793,.00014588,53.0523,80.3742,89.3764,270.7392,0,U,47874,999,25736,.68751023E-4,.743E-5,0
STARLINK-2336,2021-021V,2025-10-29T20:27:17.023104,15.06395542,.0001474,53.0524,153.9695,86.2526,273.8631,0,U,47879,999,25643,.14200951E-3,.1834E-4,0
STARLINK-2340,2021-021Y,2025-10-31T08:00:03.000384,15.68852984,.0005368,53.0369,51.5548,312.4841,42.7642,0,U,47882,999,585,.19029438E-2,.228312E-2,0
STARLINK-2342,2021-021Z,2025-10-30T23:48:40.679136,15.06396801,.00013825,53.0545,138.8567,89.9844,270.1304,0,U,47883,999,25674,-.81674584E-4,-.1498E-4,0
STARLINK-2343,2021-021AA,2025-10-30T13:50:54.475296,15.06406596,.00016749,53.0517,145.7191,96.5003,263.6177,0,U,47884,999,25643,-.14959857E-4,-.504E-5,0
STARLINK-2346,2021-021AD,2025-10-30T23:50:40.149600,15.06397051,.00018741,53.0554,143.8511,103.1139,257.0059,0,U,47887,999,25650,.15698342E-3,.2057E-4,0
STARLINK-2354,2021-021AL,2025-10-30T06:15:45.196992,15.06405901,.00015198,53.0535,137.1384,87.0472,273.0691,0,U,47894,999,25648,.16437687E-3,.2168E-4,0
STARLINK-2355,2021-021AM,2025-10-30T12:53:49.947360,15.06403367,.00014904,53.0545,135.8976,86.7009,273.4151,0,U,47895,999,25655,.37063405E-4,.271E-5,0
STARLINK-2356,2021-021AN,2025-10-30T23:52:39.420480,15.06399154,.00015711,53.0531,148.8446,78.1086,282.0079,0,U,47896,999,25638,.53228479E-4,.511E-5,0
STARLINK-2358,2021-021AQ,2025-10-30T12:43:14.764800,15.06396891,.00014558,53.0541,135.9306,88.4945,271.6210,0,U,47898,999,25652,.20781066E-3,.2815E-4,0
STARLINK-2361,2021-021AT,2025-10-30T21:56:34.573056,15.06409389,.00013194,53.0533,124.2897,98.1908,261.9230,0,U,47901,999,25676,.14331311E-3,.1854E-4,0
STARLINK-2363,2021-021AV,2025-10-30T07:45:57.995424,15.06398637,.00015874,53.0509,126.8444,87.4529,272.6642,0,U,47903,999,25702,.21022655E-3,.2851E-4,0
STARLINK-2364,2021-021AW,2025-10-30T12:28:37.054848,15.06399204,.00014356,53.0526,125.9759,88.1344,271.9810,0,U,47904,999,25669,.70358978E-4,.767E-5,0
STARLINK-2367,2021-021AZ,2025-10-30T06:14:25.213920,15.06404880,.00011507,53.0520,147.1432,80.3940,279.7179,0,U,47907,999,25635,.12148077E-3,.1529E-4,0
STARLINK-2368,2021-021BA,2025-10-24T22:00:03.998880,15.52507398,.0001015,53.0535,166.1849,86.8152,51.7902,0,U,47908,999,579,.16717E-1,.1139379E-1,0
STARLINK-2370,2021-021BC,2025-10-30T12:48:33.392448,15.06398328,.00012216,53.0553,136.0724,93.9894,266.1235,0,U,47910,999,25658,.5325075E-4,.512E-5,0
STARLINK-2371,2021-021BD,2025-10-30T14:24:46.798560,15.06405060,.00016902,53.0517,150.8543,86.5248,273.5934,0,U,47911,999,25621,.82057803E-4,.941E-5,0
STARLINK-2378,2021-021BJ,2025-10-31T05:43:38.037216,15.06397539,.0001628,53.0548,122.7491,94.6391,265.4784,0,U,47916,999,25680,.48215519E-4,.437E-5,0
STARLINK-2405,2021-021BM,2025-10-30T13:45:35.329248,15.06404850,.00013017,53.0532,145.7358,96.0620,264.0517,0,U,47919,999,25642,-.3424616E-5,-.332E-5,0
STARLINK-1647,2021-024B,2025-10-30T22:26:23.870400,15.06398310,.00013981,53.0537,199.1125,73.5142,286.6001,0,U,47978,999,25500,-.95679189E-4,-.1706E-4,0
STARLINK-2303,2021-024E,2025-10-30T22:10:28.777152,15.06399073,.0001459,53.0534,199.1602,79.4555,280.6598,0,U,47981,999,25500,-.10178912E-3,-.1797E-4,0
STARLINK-2273,2021-024S,2025-10-30T21:17:24.686592,15.06399692,.0001326,53.0529,159.3249,95.0019,265.1122,0,U,47993,999,25555,-.35556985E-4,-.811E-5,0
STARLINK-2266,2021-024W,2025-10-30T16:10:12.987552,15.06404023,.00012462,53.0532,175.2843,95.3809,264.7323,0,U,47997,999,25531,.13379073E-3,.1712E-4,0
STARLINK-2270,2021-024Z,2025-10-30T19:51:53.201376,15.06368167,.00014179,53.0531,104.7935,86.4165,273.6986,0,U,48000,999,25626,-.31515703E-3,-.4968E-4,0
STARLINK-2153,2021-024AJ,2025-10-30T23:11:31.202304,15.06395522,.0001324,53.0524,178.9687,92.1840,267.9300,0,U,48009,999,25523,-.13029989E-3,-.2221E-4,0
STARLINK-2226,2021-024AK,2025-10-30T23:30:05.783040,15.06407626,.00014373,53.0533,198.9127,111.3637,248.7506,0,U,48010,999,25495,.64422142E-3,.9329E-4,0
STARLINK-2285,2021-024AU,2025-10-30T21:02:08.781792,15.06396979,.00013125,53.0525,174.3721,84.8169,275.2969,0,U,48019,999,25528,-.5037354E-4,-.1032E-4,0
