STARLINK-2291           
1 47862U 21021C   25304.20545618  .00000143  00000+0  28521-4 0  9997
2 47862  53.0531 122.8945 0001509  89.0873 271.0289 15.06399524256812
STARLINK-2326           
1 47870U 21021L   25303.88432207 -.00000956  00000+0 -45306-4 0  9992
2 47870  53.0523 149.3382 0001413  83.4571 276.6579 15.06398786256315
STARLINK-2329           
1 47873U 21021P   25302.78268609  .00001637  00000+0  12876-3 0  9996
2 47873  53.0528 129.2799 0001337  92.9390 267.1752 15.06403812256596
STARLINK-2330           
1 47874U 21021Q   25303.65487029  .00000743  00000+0  68751-4 0  9994
2 47874  53.0523  80.3742 0001458  89.3764 270.7392 15.06394793257369
STARLINK-2336           
1 47879U 21021V   25302.85228036  .00001834  00000+0  14201-3 0  9993
2 47879  53.0524 153.9695 0001474  86.2526 273.8631 15.06395542256439
STARLINK-2340           
1 47882U 21021Y   25304.33336806  .00228312  00000+0  19029-2 0  9991
2 47882  53.0369  51.5548 0005368 312.4841  42.7642 15.68852984  5859
STARLINK-2342           
1 47883U 21021Z   25303.99213749 -.00001498  00000+0 -81675-4 0  9997
2 47883  53.0545 138.8567 0001382  89.9844 270.1304 15.06396801256748
STARLINK-2343           
1 47884U 21021AA  25303.57701939 -.00000504  00000+0 -14960-4 0  9995
2 47884  53.0517 145.7191 0001674  96.5003 263.6177 15.06406596256437
STARLINK-2346           
1 47887U 21021AD  25303.99352025  .00002057  00000+0  15698-3 0  9993
2 47887  53.0554 143.8511 0001874 103.1139 257.0059 15.06397051256502
STARLINK-2354           
1 47894U 21021AL  25303.26093978  .00002168  00000+0  16438-3 0  9996
2 47894  53.0535 137.1384 0001519  87.0472 273.0691 15.06405901256480
STARLINK-2355           
1 47895U 21021AM  25303.53738365  .00000271  00000+0  37063-4 0  9994
2 47895  53.0545 135.8976 0001490  86.7009 273.4151 15.06403367256551
STARLINK-2356           
1 47896U 21021AN  25303.99490070  .00000511  00000+0  53228-4 0  9991
2 47896  53.0531 148.8446 0001571  78.1086 282.0079 15.06399154256387
STARLINK-2358           
1 47898U 21021AQ  25303.53003200  .00002815  00000+0  20781-3 0  9994
2 47898  53.0541 135.9306 0001455  88.4945 271.6210 15.06396891256523
STARLINK-2361           
1 47901U 21021AT  25303.91428904  .00001854  00000+0  14331-3 0  9999
2 47901  53.0533 124.2897 0001319  98.1908 261.9230 15.06409389256768
STARLINK-2363           
1 47903U 21021AV  25303.32358791  .00002851  00000+0  21023-3 0  9996
2 47903  53.0509 126.8444 0001587  87.4529 272.6642 15.06398637257025
STARLINK-2364           
1 47904U 21021AW  25303.51987332  .00000767  00000+0  70359-4 0  9998
2 47904  53.0526 125.9759 0001435  88.1344 271.9810 15.06399204256691
STARLINK-2367           
1 47907U 21021AZ  25303.26001405  .00001529  00000+0  12148-3 0  9999
2 47907  53.0520 147.1432 0001150  80.3940 279.7179 15.06404880256356
STARLINK-2368           
1 47908U 21021BA  25297.91671295  .01139379  00000+0  16717-1 0  9994
2 47908  53.0535 166.1849 0001015  86.8152  51.7902 15.52507398  5793
STARLINK-2370           
1 47910U 21021BC  25303.53371982  .00000512  00000+0  53251-4 0  9995
2 47910  53.0553 136.0724 0001221  93.9894 266.1235 15.06398328256581
STARLINK-2371           
1 47911U 21021BD  25303.60054165  .00000941  00000+0  82058-4 0  9998
2 47911  53.0517 150.8543 0001690  86.5248 273.5934 15.06405060256216
STARLINK-2378           
1 47916U 21021BJ  25304.23863469  .00000437  00000+0  48216-4 0  9996
2 47916  53.0548 122.7491 0001628  94.6391 265.4784 15.06397539256804
STARLINK-2405           
1 47919U 21021BM  25303.57332557 -.00000332  00000+0 -34246-5 0  9999
2 47919  53.0532 145.7358 0001301  96.0620 264.0517 15.06404850256428
STARLINK-1647           
1 47978U 21024B   25303.93499850 -.00001706  00000+0 -95679-4 0  9999
2 47978  53.0537 199.1125 0001398  73.5142 286.6001 15.06398310255002
STARLINK-2303           
1 47981U 21024E   25303.92394418 -.00001797  00000+0 -10179-3 0  9997
2 47981  53.0534 199.1602 0001459  79.4555 280.6598 15.06399073255006
STARLINK-2273           
1 47993U 21024S   25303.88709128 -.00000811  00000+0 -35557-4 0  9997
2 47993  53.0529 159.3249 0001326  95.0019 265.1122 15.06399692255558
STARLINK-2266           
1 47997U 21024W   25303.67376143  .00001712  00000+0  13379-3 0  9991
2 47997  53.0532 175.2843 0001246  95.3809 264.7323 15.06404023255311
STARLINK-2270           
1 48000U 21024Z   25303.82769909 -.00004968  00000+0 -31516-3 0  9991
2 48000  53.0531 104.7935 0001417  86.4165 273.6986 15.06368167256268
STARLINK-2153           
1 48009U 21024AJ  25303.96633336 -.00002221  00000+0 -13030-3 0  9990
2 48009  53.0524 178.9687 0001324  92.1840 267.9300 15.06395522255234
STARLINK-2226           
1 48010U 21024AK  25303.97923360  .00009329  00000+0  64422-3 0  9997
2 48010  53.0533 198.9127 0001437 111.3637 248.7506 15.06407626254952
STARLINK-2285           
1 48019U 21024AU  25303.87649053 -.00001032  00000+0 -50374-4 0  9996
2 48019  53.0525 174.3721 0001312  84.8169 275.2969 15.06396979255289
